[{"OBJECT_NAME":"LYNK TOWER 5","OBJECT_ID":"2024-043Z","EPOCH":"2026-03-09T22:11:51.175104","MEAN_MOTION":15.29454506,"ECCENTRICITY":0.00104056,"INCLINATION":97.5458,"RA_OF_ASC_NODE":204.7305,"ARG_OF_PERICENTER":234.6422,"MEAN_ANOMALY":125.3846,"EPHEMERIS_TYPE":0,"CLASSIFICATION_TYPE":"U","NORAD_CAT_ID":59121,"ELEMENT_SET_NO":999,"REV_AT_EPOCH":11186,"BSTAR":0.00031901545,"MEAN_MOTION_DOT":9.048e-5,"MEAN_MOTION_DDOT":0},{"OBJECT_NAME":"STARLINK-32621","OBJECT_ID":"2024-239C","EPOCH":"2026-03-09T12:57:27.656352","MEAN_MOTION":15.30171402,"ECCENTRICITY":0.00010697,"INCLINATION":53.1574,"RA_OF_ASC_NODE":181.6429,"ARG_OF_PERICENTER":97.8064,"MEAN_ANOMALY":262.3058,"EPHEMERIS_TYPE":0,"CLASSIFICATION_TYPE":"U","NORAD_CAT_ID":62303,"ELEMENT_SET_NO":999,"REV_AT_EPOCH":6954,"BSTAR":0.0012502777,"MEAN_MOTION_DOT":0.00036821,"MEAN_MOTION_DDOT":0}]
